[{"OBJECT_NAME":"STARLINK-4494","OBJECT_ID":"2022-101AH","EPOCH":"2026-03-09T23:38:35.771136","MEAN_MOTION":15.08833701,"ECCENTRICITY":0.00014733,"INCLINATION":53.2178,"RA_OF_ASC_NODE":57.5174,"ARG_OF_PERICENTER":100.1869,"MEAN_ANOMALY":259.9289,"EPHEMERIS_TYPE":0,"CLASSIFICATION_TYPE":"U","NORAD_CAT_ID":53558,"ELEMENT_SET_NO":999,"REV_AT_EPOCH":19708,"BSTAR":-2.0114962e-5,"MEAN_MOTION_DOT":-6.08e-6,"MEAN_MOTION_DDOT":0},{"OBJECT_NAME":"LEMUR-2-STELLA","OBJECT_ID":"2024-149BT","EPOCH":"2026-03-09T17:26:15.951264","MEAN_MOTION":15.09464064,"ECCENTRICITY":0.0001299,"INCLINATION":97.6764,"RA_OF_ASC_NODE":150.9122,"ARG_OF_PERICENTER":95.1117,"MEAN_ANOMALY":265.026,"EPHEMERIS_TYPE":0,"CLASSIFICATION_TYPE":"U","NORAD_CAT_ID":60533,"ELEMENT_SET_NO":999,"REV_AT_EPOCH":8548,"BSTAR":0.00085776432,"MEAN_MOTION_DOT":0.00013685,"MEAN_MOTION_DDOT":0}]
